{
  "norad_id": 67357,
  "name": "STARLINK-36456",
  "history": [
    {
      "epoch": "2026-03-28T18:45:49.461408Z",
      "apogee_km": 483.68935611609777,
      "perigee_km": 482.33798388013565,
      "latitude_deg": 3.3900088453527696e-05,
      "longitude_deg": 11.597211681935992,
      "height_km": 482.7113136779642,
      "semi_major_axis_km": 6861.150669998116,
      "eccentricity": 9.848e-05,
      "inclination_deg": 43.0002,
      "raan_deg": 119.2506,
      "arg_perigee_deg": 276.6908,
      "mean_anomaly_deg": 83.3832,
      "mean_motion_rev_day": 15.27591831
    },
    {
      "epoch": "2026-03-30T02:08:56.040000Z",
      "apogee_km": 483.5349405642273,
      "perigee_km": 482.3544228500723,
      "latitude_deg": 5.428459574896131e-06,
      "longitude_deg": -107.85647170484742,
      "height_km": 482.6409797300777,
      "semi_major_axis_km": 6861.081681707149,
      "eccentricity": 8.603e-05,
      "inclination_deg": 43.0002,
      "raan_deg": 111.8633,
      "arg_perigee_deg": 277.7855,
      "mean_anomaly_deg": 82.2899,
      "mean_motion_rev_day": 15.27614871
    },
    {
      "epoch": "2026-03-30T11:33:52.822368Z",
      "apogee_km": 483.88079892934365,
      "perigee_km": 482.27993969273666,
      "latitude_deg": 1.002403985603592e-05,
      "longitude_deg": 108.30634839811496,
      "height_km": 482.58386200722003,
      "semi_major_axis_km": 6861.21736931104,
      "eccentricity": 0.00011666,
      "inclination_deg": 42.9993,
      "raan_deg": 109.6494,
      "arg_perigee_deg": 289.9352,
      "mean_anomaly_deg": 70.1374,
      "mean_motion_rev_day": 15.27569556
    },
    {
      "epoch": "2026-03-30T17:50:30.918624Z",
      "apogee_km": 483.57969746646995,
      "perigee_km": 482.6114403263473,
      "latitude_deg": 8.827691373868549e-08,
      "longitude_deg": 12.412906249861354,
      "height_km": 482.5961198946054,
      "semi_major_axis_km": 6861.232568896408,
      "eccentricity": 7.056e-05,
      "inclination_deg": 42.9985,
      "raan_deg": 108.1725,
      "arg_perigee_deg": 304.6561,
      "mean_anomaly_deg": 55.4224,
      "mean_motion_rev_day": 15.2756448
    },
    {
      "epoch": "2026-03-31T17:22:51.631680Z",
      "apogee_km": 483.8135572803021,
      "perigee_km": 482.2876291595694,
      "latitude_deg": 4.695948903492183e-05,
      "longitude_deg": 12.818637194914158,
      "height_km": 482.79333112836144,
      "semi_major_axis_km": 6861.1875932199355,
      "eccentricity": 0.0001112,
      "inclination_deg": 43.0017,
      "raan_deg": 102.6312,
      "arg_perigee_deg": 272.5472,
      "mean_anomaly_deg": 87.5253,
      "mean_motion_rev_day": 15.275795
    },
    {
      "epoch": "2026-04-01T10:38:35.312064Z",
      "apogee_km": 483.9054967803313,
      "perigee_km": 482.23547887779387,
      "latitude_deg": -3.132728479915918e-05,
      "longitude_deg": 109.11702241411005,
      "height_km": 482.73153470753965,
      "semi_major_axis_km": 6861.207487829062,
      "eccentricity": 0.0001217,
      "inclination_deg": 43.0002,
      "raan_deg": 98.5706,
      "arg_perigee_deg": 277.9531,
      "mean_anomaly_deg": 82.1182,
      "mean_motion_rev_day": 15.27572856
    },
    {
      "epoch": "2026-04-02T16:27:33.320448Z",
      "apogee_km": 483.6588073433122,
      "perigee_km": 482.2758831514848,
      "latitude_deg": -1.3278793226453723e-05,
      "longitude_deg": 13.63423695996949,
      "height_km": 482.72863209474696,
      "semi_major_axis_km": 6861.104345247399,
      "eccentricity": 0.00010078,
      "inclination_deg": 43.003,
      "raan_deg": 91.554,
      "arg_perigee_deg": 271.2774,
      "mean_anomaly_deg": 88.7962,
      "mean_motion_rev_day": 15.27607302
    },
    {
      "epoch": "2026-04-03T15:59:53.513376Z",
      "apogee_km": 484.82831871899,
      "perigee_km": 481.0931371159131,
      "latitude_deg": -5.761707591228873e-05,
      "longitude_deg": 14.040742634789579,
      "height_km": 482.7815996160768,
      "semi_major_axis_km": 6861.097727917451,
      "eccentricity": 0.0002722,
      "inclination_deg": 43.0039,
      "raan_deg": 86.0114,
      "arg_perigee_deg": 268.6879,
      "mean_anomaly_deg": 91.366,
      "mean_motion_rev_day": 15.27609512
    },
    {
      "epoch": "2026-04-04T07:41:28.500864Z",
      "apogee_km": 484.08816431574087,
      "perigee_km": 482.01375274835755,
      "latitude_deg": 9.991743402834142e-07,
      "longitude_deg": 134.30983285963217,
      "height_km": 483.0367098867256,
      "semi_major_axis_km": 6861.1879585320485,
      "eccentricity": 0.00015117,
      "inclination_deg": 43.002,
      "raan_deg": 82.3207,
      "arg_perigee_deg": 258.387,
      "mean_anomaly_deg": 101.6812,
      "mean_motion_rev_day": 15.27579378
    },
    {
      "epoch": "2026-04-05T07:13:49.674432Z",
      "apogee_km": 483.5410142124483,
      "perigee_km": 482.36090708321626,
      "latitude_deg": 1.383792692282907e-05,
      "longitude_deg": 134.7154009616982,
      "height_km": 483.0165767725374,
      "semi_major_axis_km": 6861.087960647832,
      "eccentricity": 8.6e-05,
      "inclination_deg": 43.0003,
      "raan_deg": 76.7812,
      "arg_perigee_deg": 240.6184,
      "mean_anomaly_deg": 119.4582,
      "mean_motion_rev_day": 15.27612774
    },
    {
      "epoch": "2026-04-05T15:04:36.784992Z",
      "apogee_km": 483.3117623263515,
      "perigee_km": 482.73405266214013,
      "latitude_deg": 1.4553835245836146e-06,
      "longitude_deg": 14.851452168296031,
      "height_km": 482.53478063260536,
      "semi_major_axis_km": 6861.159907494246,
      "eccentricity": 4.21e-05,
      "inclination_deg": 43.0019,
      "raan_deg": 74.9358,
      "arg_perigee_deg": 336.0358,
      "mean_anomaly_deg": 24.0474,
      "mean_motion_rev_day": 15.27588746
    },
    {
      "epoch": "2026-04-06T06:46:09.912288Z",
      "apogee_km": 484.0639519866372,
      "perigee_km": 481.8995434664803,
      "latitude_deg": 2.836805272571113e-06,
      "longitude_deg": 135.12665234855794,
      "height_km": 482.9559333205922,
      "semi_major_axis_km": 6861.1187477265585,
      "eccentricity": 0.00015773,
      "inclination_deg": 43.0024,
      "raan_deg": 71.2435,
      "arg_perigee_deg": 259.505,
      "mean_anomaly_deg": 100.5624,
      "mean_motion_rev_day": 15.27602492
    },
    {
      "epoch": "2026-04-07T06:18:30.703104Z",
      "apogee_km": 484.017733100698,
      "perigee_km": 481.97092040330153,
      "latitude_deg": -4.5628762290594434e-05,
      "longitude_deg": 135.53555287173796,
      "height_km": 482.77263215279754,
      "semi_major_axis_km": 6861.131326751999,
      "eccentricity": 0.00014916,
      "inclination_deg": 42.9992,
      "raan_deg": 65.7058,
      "arg_perigee_deg": 269.9096,
      "mean_anomaly_deg": 90.1584,
      "mean_motion_rev_day": 15.27598291
    },
    {
      "epoch": "2026-04-08T13:41:39.069312Z",
      "apogee_km": 483.91792564827574,
      "perigee_km": 482.20056822766765,
      "latitude_deg": -1.5994014835531722e-05,
      "longitude_deg": 16.07635821118076,
      "height_km": 482.9788467065362,
      "semi_major_axis_km": 6861.196246937971,
      "eccentricity": 0.00012515,
      "inclination_deg": 43.0014,
      "raan_deg": 58.3204,
      "arg_perigee_deg": 260.4204,
      "mean_anomaly_deg": 99.6506,
      "mean_motion_rev_day": 15.2757661
    },
    {
      "epoch": "2026-04-09T13:13:59.460960Z",
      "apogee_km": 483.8341741319591,
      "perigee_km": 482.1669177083004,
      "latitude_deg": 1.935613909405357e-05,
      "longitude_deg": 16.4863154942011,
      "height_km": 482.8907796283614,
      "semi_major_axis_km": 6861.137545920129,
      "eccentricity": 0.0001215,
      "inclination_deg": 43.0016,
      "raan_deg": 52.782,
      "arg_perigee_deg": 262.1721,
      "mean_anomaly_deg": 97.8993,
      "mean_motion_rev_day": 15.27596214
    },
    {
      "epoch": "2026-04-10T04:55:32.763648Z",
      "apogee_km": 483.82769539351375,
      "perigee_km": 482.10569558801944,
      "latitude_deg": -2.586085565870167e-06,
      "longitude_deg": 136.7601575729887,
      "height_km": 482.6963733057144,
      "semi_major_axis_km": 6861.103695490766,
      "eccentricity": 0.00012549,
      "inclination_deg": 43.0017,
      "raan_deg": 49.0891,
      "arg_perigee_deg": 273.1355,
      "mean_anomaly_deg": 86.9353,
      "mean_motion_rev_day": 15.27607519
    },
    {
      "epoch": "2026-04-11T20:09:27.817920Z",
      "apogee_km": 484.09774328964977,
      "perigee_km": 482.14777326634794,
      "latitude_deg": -4.1858857971683654e-07,
      "longitude_deg": -102.5618354447537,
      "height_km": 483.09154827752195,
      "semi_major_axis_km": 6861.259758277999,
      "eccentricity": 0.0001421,
      "inclination_deg": 43.002,
      "raan_deg": 39.8577,
      "arg_perigee_deg": 258.649,
      "mean_anomaly_deg": 101.4202,
      "mean_motion_rev_day": 15.275554
    },
    {
      "epoch": "2026-04-13T05:06:45.605376Z",
      "apogee_km": 484.0586160342791,
      "perigee_km": 482.03237162020105,
      "latitude_deg": 3.648705339811697e-05,
      "longitude_deg": 114.00607754245874,
      "height_km": 482.9336530135415,
      "semi_major_axis_km": 6861.182493827239,
      "eccentricity": 0.00014766,
      "inclination_deg": 43.0022,
      "raan_deg": 32.1031,
      "arg_perigee_deg": 263.6999,
      "mean_anomaly_deg": 96.3685,
      "mean_motion_rev_day": 15.27581203
    },
    {
      "epoch": "2026-04-14T18:46:30.599904Z",
      "apogee_km": 484.2016487766623,
      "perigee_km": 481.84415423450446,
      "latitude_deg": -1.3332239909938772e-05,
      "longitude_deg": -101.34099499005565,
      "height_km": 482.9401015109471,
      "semi_major_axis_km": 6861.159901505584,
      "eccentricity": 0.0001718,
      "inclination_deg": 43.0028,
      "raan_deg": 23.2403,
      "arg_perigee_deg": 263.1809,
      "mean_anomaly_deg": 96.8847,
      "mean_motion_rev_day": 15.27588748
    }
  ]
}